[{"OBJECT_NAME":"STARLINK-2727","OBJECT_ID":"2021-044Q","EPOCH":"2026-03-10T00:00:02.999808","MEAN_MOTION":15.34639006,"ECCENTRICITY":0.00017275,"INCLINATION":53.0508,"RA_OF_ASC_NODE":111.1316,"ARG_OF_PERICENTER":77.2122,"MEAN_ANOMALY":188.8895,"EPHEMERIS_TYPE":0,"CLASSIFICATION_TYPE":"U","NORAD_CAT_ID":48652,"ELEMENT_SET_NO":999,"REV_AT_EPOCH":575,"BSTAR":0.016465627,"MEAN_MOTION_DOT":0.00599833,"MEAN_MOTION_DDOT":0},{"OBJECT_NAME":"SL-8 DEB","OBJECT_ID":"1965-020AH","EPOCH":"2026-03-09T21:20:25.012032","MEAN_MOTION":15.12110764,"ECCENTRICITY":0.01461339,"INCLINATION":55.8593,"RA_OF_ASC_NODE":285.3244,"ARG_OF_PERICENTER":198.731,"MEAN_ANOMALY":160.8307,"EPHEMERIS_TYPE":0,"CLASSIFICATION_TYPE":"U","NORAD_CAT_ID":1392,"ELEMENT_SET_NO":999,"REV_AT_EPOCH":8107,"BSTAR":0.0016215192,"MEAN_MOTION_DOT":0.00036476,"MEAN_MOTION_DDOT":0}]
